OBJECT_NAME,OBJECT_ID,EPOCH,MEAN_MOTION,ECCENTRICITY,INCLINATION,RA_OF_ASC_NODE,ARG_OF_PERICENTER,MEAN_ANOMALY,EPHEMERIS_TYPE,CLASSIFICATION_TYPE,NORAD_CAT_ID,ELEMENT_SET_NO,REV_AT_EPOCH,BSTAR,MEAN_MOTION_DOT,MEAN_MOTION_DDOT
STARLINK-5757,2023-020M,2026-06-30T23:17:18.920832,15.27574911,.00012073,43.0007,59.7973,278.9806,81.0909,0,U,55580,999,18653,.21514506E-4,.33E-5,0
STARLINK-5741,2023-020P,2026-06-30T23:11:03.737472,15.27572500,.00016111,43.0053,74.4960,262.8181,97.2488,0,U,55582,999,18636,.3425698E-4,.68E-5,0
STARLINK-5742,2023-020Q,2026-06-30T18:54:14.522976,15.27578439,.00012763,43.0033,86.1448,260.7536,99.3172,0,U,55583,999,18621,.25508178E-4,.44E-5,0
STARLINK-5769,2023-020S,2026-06-30T00:13:51.576672,15.27577081,.00011383,43.0037,80.2235,248.8879,111.1851,0,U,55585,999,18621,.86836E-5,-.23E-6,0
STARLINK-5762,2023-020X,2026-06-30T17:49:41.549664,15.27578413,.00016066,43.0038,86.6708,274.3852,85.6816,0,U,55590,999,18620,.34242464E-4,.68E-5,0
STARLINK-5759,2023-020Z,2026-06-30T18:57:56.437056,15.27620465,.0001272,43.0016,86.1613,283.0853,76.9856,0,U,55592,999,18621,-.31781825E-3,-.9008E-4,0
STARLINK-5703,2023-020AA,2026-06-30T18:52:23.864448,15.27576075,.00010864,43.0032,86.1342,266.6308,93.4419,0,U,55593,999,18621,.12564167E-4,.84E-6,0
STARLINK-5750,2023-020AB,2026-06-30T19:03:29.950560,15.27571945,.00016176,43.0036,86.1917,255.5553,104.5119,0,U,55594,999,18621,-.1011455E-4,-.54E-5,0
STARLINK-5729,2023-020AD,2026-06-30T19:18:18.116640,15.27576709,.00012235,43.0032,86.2665,244.0492,116.0234,0,U,55596,999,18621,.3565324E-4,.719E-5,0
STARLINK-5756,2023-020AF,2026-06-30T23:29:32.493984,15.27577582,.00016268,43.0014,74.5657,270.5210,89.5455,0,U,55598,999,18636,.72609665E-4,.1736E-4,0
STARLINK-5761,2023-020AG,2026-06-30T17:18:28.270656,15.27577764,.00012084,43.0022,76.0741,258.4761,101.5955,0,U,55599,999,18632,.17938794E-4,.232E-5,0
STARLINK-5744,2023-020AJ,2026-06-30T18:47:03.166656,15.27573905,.00014089,43.0055,86.9573,269.2132,90.8559,0,U,55601,999,18620,.6998984E-5,-.7E-6,0
STARLINK-5764,2023-020AK,2026-06-30T23:40:38.797824,15.27577929,.00011526,43.0020,74.6252,256.2738,103.7986,0,U,55602,999,18636,.27038878E-4,.482E-5,0
STARLINK-5735,2023-020AL,2026-06-30T16:37:45.731424,15.27576090,.00014348,43.0036,75.8846,274.7439,85.3249,0,U,55603,999,18632,.27995944E-4,.508E-5,0
STARLINK-5748,2023-020AM,2026-06-30T23:00:40.031424,15.27576385,.00010196,43.0027,59.7201,255.9783,104.0955,0,U,55604,999,18653,.1151268E-4,.55E-6,0
STARLINK-5725,2023-020AN,2026-06-30T16:48:51.809760,15.27577889,.00012901,43.0038,75.9378,264.8569,95.2136,0,U,55605,999,18632,.47813426E-4,.1054E-4,0
STARLINK-5700,2023-020AQ,2026-06-30T23:25:50.639520,15.27580747,.00015847,43.0048,74.5683,272.1743,87.8927,0,U,55607,999,18636,.30263673E-4,.571E-5,0
STARLINK-5726,2023-020AR,2026-06-30T23:31:23.594016,15.27583275,.00015757,43.0013,74.5897,259.4119,100.6555,0,U,55608,999,18636,-.29132027E-4,-.1064E-4,0
STARLINK-5719,2023-020AS,2026-06-30T23:20:17.613312,15.27577220,.00017302,43.0071,74.5410,271.4531,88.6122,0,U,55609,999,18636,.33961878E-4,.672E-5,0
STARLINK-5722,2023-020AT,2026-06-30T23:42:30.026592,15.27576504,.00011406,43.0026,74.6452,258.6316,101.4407,0,U,55610,999,18636,.1736349E-4,.216E-5,0
