STARLINK-5757           
1 55580U 23020M   26181.97035787  .00000330  00000+0  21515-4 0  9997
2 55580  43.0007  59.7973 0001207 278.9806  81.0909 15.27574911186531
STARLINK-5741           
1 55582U 23020P   26181.96601547  .00000680  00000+0  34257-4 0  9996
2 55582  43.0053  74.4960 0001611 262.8181  97.2488 15.27572500186365
STARLINK-5742           
1 55583U 23020Q   26181.78766809  .00000440  00000+0  25508-4 0  9993
2 55583  43.0033  86.1448 0001276 260.7536  99.3172 15.27578439186217
STARLINK-5769           
1 55585U 23020S   26181.00962473 -.00000023  00000+0  86836-5 0  9995
2 55585  43.0037  80.2235 0001138 248.8879 111.1851 15.27577081186215
STARLINK-5762           
1 55590U 23020X   26181.74284201  .00000680  00000+0  34242-4 0  9999
2 55590  43.0038  86.6708 0001606 274.3852  85.6816 15.27578413186207
STARLINK-5759           
1 55592U 23020Z   26181.79023654 -.00009008  00000+0 -31782-3 0  9999
2 55592  43.0016  86.1613 0001272 283.0853  76.9856 15.27620465186215
STARLINK-5703           
1 55593U 23020AA  26181.78638732  .00000084  00000+0  12564-4 0  9999
2 55593  43.0032  86.1342 0001086 266.6308  93.4419 15.27576075186214
STARLINK-5750           
1 55594U 23020AB  26181.79409665 -.00000540  00000+0 -10115-4 0  9991
2 55594  43.0036  86.1917 0001617 255.5553 104.5119 15.27571945186218
STARLINK-5729           
1 55596U 23020AD  26181.80437635  .00000719  00000+0  35653-4 0  9993
2 55596  43.0032  86.2665 0001223 244.0492 116.0234 15.27576709186214
STARLINK-5756           
1 55598U 23020AF  26181.97884830  .00001736  00000+0  72610-4 0  9990
2 55598  43.0014  74.5657 0001627 270.5210  89.5455 15.27577582186362
STARLINK-5761           
1 55599U 23020AG  26181.72116054  .00000232  00000+0  17939-4 0  9993
2 55599  43.0022  76.0741 0001208 258.4761 101.5955 15.27577764186322
STARLINK-5744           
1 55601U 23020AJ  26181.78267554 -.00000070  00000+0  69990-5 0  9991
2 55601  43.0055  86.9573 0001408 269.2132  90.8559 15.27573905186209
STARLINK-5764           
1 55602U 23020AK  26181.98656015  .00000482  00000+0  27039-4 0  9991
2 55602  43.0020  74.6252 0001153 256.2738 103.7986 15.27577929186360
STARLINK-5735           
1 55603U 23020AL  26181.69289041  .00000508  00000+0  27996-4 0  9992
2 55603  43.0036  75.8846 0001434 274.7439  85.3249 15.27576090186326
STARLINK-5748           
1 55604U 23020AM  26181.95879666  .00000055  00000+0  11513-4 0  9995
2 55604  43.0027  59.7201 0001020 255.9783 104.0955 15.27576385186530
STARLINK-5725           
1 55605U 23020AN  26181.70059965  .00001054  00000+0  47813-4 0  9993
2 55605  43.0038  75.9378 0001290 264.8569  95.2136 15.27577889186327
STARLINK-5700           
1 55607U 23020AQ  26181.97628054  .00000571  00000+0  30264-4 0  9990
2 55607  43.0048  74.5683 0001585 272.1743  87.8927 15.27580747186363
STARLINK-5726           
1 55608U 23020AR  26181.98013419 -.00001064  00000+0 -29132-4 0  9997
2 55608  43.0013  74.5897 0001576 259.4119 100.6555 15.27583275186368
STARLINK-5719           
1 55609U 23020AS  26181.97242608  .00000672  00000+0  33962-4 0  9999
2 55609  43.0071  74.5410 0001730 271.4531  88.6122 15.27577220186366
STARLINK-5722           
1 55610U 23020AT  26181.98784752  .00000216  00000+0  17363-4 0  9994
2 55610  43.0026  74.6452 0001141 258.6316 101.4407 15.27576504186363
